[{"OBJECT_NAME":"OBJECT V","OBJECT_ID":"2023-091V","EPOCH":"2026-03-09T23:35:36.322656","MEAN_MOTION":15.35373298,"ECCENTRICITY":0.00083972,"INCLINATION":97.5164,"RA_OF_ASC_NODE":137.4699,"ARG_OF_PERICENTER":75.9792,"MEAN_ANOMALY":284.2385,"EPHEMERIS_TYPE":0,"CLASSIFICATION_TYPE":"U","NORAD_CAT_ID":57185,"ELEMENT_SET_NO":999,"REV_AT_EPOCH":14953,"BSTAR":0.0007712531,"MEAN_MOTION_DOT":0.00026506,"MEAN_MOTION_DDOT":0},{"OBJECT_NAME":"ANSER LEADER-S","OBJECT_ID":"2025-009AM","EPOCH":"2026-03-09T17:26:35.310912","MEAN_MOTION":15.37938842,"ECCENTRICITY":0.00014346,"INCLINATION":97.4062,"RA_OF_ASC_NODE":153.827,"ARG_OF_PERICENTER":298.2423,"MEAN_ANOMALY":61.8677,"EPHEMERIS_TYPE":0,"CLASSIFICATION_TYPE":"U","NORAD_CAT_ID":62644,"ELEMENT_SET_NO":999,"REV_AT_EPOCH":6387,"BSTAR":0.00079384372,"MEAN_MOTION_DOT":0.00029611,"MEAN_MOTION_DDOT":0}]
